{
    "links": {
        "self": "http://www.neowsapp.com/rest/v1/neo/3802571?api_key=iIulBulltgU6a56xZRHN4H3l9WmuAYTsLGpBGhQ2"
    },
    "id": "3802571",
    "neo_reference_id": "3802571",
    "name": "(2018 GV3)",
    "designation": "2018 GV3",
    "nasa_jpl_url": "http://ssd.jpl.nasa.gov/sbdb.cgi?sstr=3802571",
    "absolute_magnitude_h": 23.3,
    "estimated_diameter": {
        "kilometers": {
            "estimated_diameter_min": 0.058150704,
            "estimated_diameter_max": 0.130028927
        },
        "meters": {
            "estimated_diameter_min": 58.1507039646,
            "estimated_diameter_max": 130.0289270043
        },
        "miles": {
            "estimated_diameter_min": 0.0361331611,
            "estimated_diameter_max": 0.0807962044
        },
        "feet": {
            "estimated_diameter_min": 190.7831555951,
            "estimated_diameter_max": 426.6041048727
        }
    },
    "is_potentially_hazardous_asteroid": false,
    "close_approach_data": [
        {
            "close_approach_date": "2018-03-23",
            "close_approach_date_full": "2018-Mar-23 12:46",
            "epoch_date_close_approach": 1521809160000,
            "relative_velocity": {
                "kilometers_per_second": "13.4508629115",
                "kilometers_per_hour": "48423.106481224",
                "miles_per_hour": "30088.235246625"
            },
            "miss_distance": {
                "astronomical": "0.098566016",
                "lunar": "38.342180224",
                "kilometers": "14745266.04798592",
                "miles": "9162283.461488896"
            },
            "orbiting_body": "Earth"
        }
    ],
    "orbital_data": {
        "orbit_id": "3",
        "orbit_determination_date": "2018-04-24 07:01:25",
        "first_observation_date": "2018-04-13",
        "last_observation_date": "2018-04-21",
        "data_arc_in_days": 8,
        "observations_used": 31,
        "orbit_uncertainty": "9",
        "minimum_orbit_intersection": ".00626414",
        "jupiter_tisserand_invariant": "3.926",
        "epoch_osculation": "2458222.5",
        "eccentricity": ".5063175394219802",
        "semi_major_axis": "1.784510629402204",
        "inclination": ".6253380218586588",
        "ascending_node_longitude": "207.4815584373167",
        "orbital_period": "870.7172242489795",
        "perihelion_distance": ".880981598450911",
        "perihelion_argument": "276.0803483578638",
        "aphelion_distance": "2.688039660353497",
        "perihelion_time": "2458160.463855924881",
        "mean_anomaly": "25.64898367125533",
        "mean_motion": ".4134522551917026",
        "equinox": "J2000",
        "orbit_class": {
            "orbit_class_type": "APO",
            "orbit_class_description": "Near-Earth asteroid orbits which cross the Earth’s orbit similar to that of 1862 Apollo",
            "orbit_class_range": "a (semi-major axis) > 1.0 AU; q (perihelion) < 1.017 AU"
        }
    },
    "is_sentry_object": false
}